NORAD_CAT_ID,OBJECT_NAME,OBJECT_TYPE,EPOCH,MEAN_MOTION,ECCENTRICITY,INCLINATION,RA_OF_ASC_NODE,ARG_OF_PERICENTER,MEAN_ANOMALY,BSTAR,MEAN_MOTION_DOT,MEAN_MOTION_DDOT,TLE_LINE0,TLE_LINE1,TLE_LINE2,SEMIMAJOR_AXIS,PERIOD,APOGEE,PERIGEE,DECAYED
51793.0,STARLINK-3633,PAYLOAD,2023-09-25 18:03:26,15.08851958,0.0001415,53.2185,51.1392,94.4085,265.7068,0.00073645,0.00011456,0.0,0 STARLINK-3633,1 51793U 22017AB  23268.75239452  .00011456  00000-0  73645-3 0  9990,2 51793  53.2185  51.1392 0001415  94.4085 265.7068 15.08851958 88711,6917.844,95.437,540.688,538.73,0.0
51793.0,STARLINK-3633,PAYLOAD,2023-09-26 09:57:18,15.08838136,0.0001532,53.2184,48.1654,90.7982,269.3186,6.9476e-05,8.18e-06,0.0,0 STARLINK-3633,1 51793U 22017AB  23269.41479818  .00000818  00000-0  69476-4 0  9994,2 51793  53.2184  48.1654 0001532  90.7982 269.3186 15.08838136 88817,6917.886,95.438,540.811,538.691,0.0
51793.0,STARLINK-3633,PAYLOAD,2023-09-26 14:43:27,15.0883851,0.0001313,53.2179,47.27,85.299,274.8152,0.00010702,1.416e-05,0.0,0 STARLINK-3633,1 51793U 22017AB  23269.61351838  .00001416  00000-0  10702-3 0  9999,2 51793  53.2179  47.2700 0001313  85.2990 274.8152 15.08838510 88841,6917.885,95.438,540.658,538.842,0.0
51793.0,STARLINK-3633,PAYLOAD,2023-09-26 16:18:51,15.08838532,0.00014,53.2181,46.9756,89.6425,270.4727,8.5996e-05,1.081e-05,0.0,0 STARLINK-3633,1 51793U 22017AB  23269.67975825  .00001081  00000-0  85996-4 0  9999,2 51793  53.2181  46.9756 0001400  89.6425 270.4727 15.08838532 88854,6917.885,95.438,540.718,538.781,0.0
51793.0,STARLINK-3633,PAYLOAD,2023-09-27 12:58:52,15.08838828,0.0001442,53.2184,43.1126,84.449,275.6667,2.6942e-05,1.41e-06,0.0,0 STARLINK-3633,1 51793U 22017AB  23270.54088127  .00000141  00000-0  26942-4 0  9999,2 51793  53.2184  43.1126 0001442  84.4490 275.6667 15.08838828 88980,6917.884,95.438,540.747,538.751,0.0
51793.0,STARLINK-3633,PAYLOAD,2023-09-27 16:09:38,15.08843004,0.0001341,53.2178,42.5189,86.3284,273.7862,0.00011759,1.584e-05,0.0,0 STARLINK-3633,1 51793U 22017AB  23270.67335960  .00001584  00000-0  11759-3 0  9994,2 51793  53.2178  42.5189 0001341  86.3284 273.7862 15.08843004 89007,6917.871,95.437,540.664,538.809,0.0
51793.0,STARLINK-3633,PAYLOAD,2023-09-28 12:49:39,15.08840081,0.0001238,53.2172,38.6537,90.5116,269.6018,0.0001654,2.345e-05,0.0,0 STARLINK-3633,1 51793U 22017AB  23271.53448248  .00002345  00000-0  16540-3 0  9993,2 51793  53.2172  38.6537 0001238  90.5116 269.6018 15.08840081 89133,6917.88,95.438,540.602,538.889,0.0
51793.0,STARLINK-3633,PAYLOAD,2023-09-28 14:25:02,15.08841358,0.0001249,53.2174,38.3565,89.2893,270.8242,0.00018147,2.601e-05,0.0,0 STARLINK-3633,1 51793U 22017AB  23271.60072211  .00002601  00000-0  18147-3 0  9994,2 51793  53.2174  38.3565 0001249  89.2893 270.8242 15.08841358 89144,6917.876,95.437,540.605,538.877,0.0
51793.0,STARLINK-3633,PAYLOAD,2023-09-28 17:35:48,15.08849524,0.0001266,53.2175,37.7621,95.3915,264.7221,0.00033383,5.03e-05,0.0,0 STARLINK-3633,1 51793U 22017AB  23271.73319899  .00005030  00000-0  33383-3 0  9992,2 51793  53.2175  37.7621 0001266  95.3915 264.7221 15.08849524 89167,6917.851,95.437,540.592,538.84,0.0
51793.0,STARLINK-3633,PAYLOAD,2023-09-29 07:54:16,15.08841852,0.0001337,53.2182,35.0845,101.2183,258.8959,0.00011172,1.491e-05,0.0,0 STARLINK-3633,1 51793U 22017AB  23272.32936183  .00001491  00000-0  11172-3 0  9998,2 51793  53.2182  35.0845 0001337 101.2183 258.8959 15.08841852 89255,6917.875,95.437,540.665,538.815,0.0
51793.0,STARLINK-3633,PAYLOAD,2023-09-29 14:15:49,15.08846198,0.0001497,53.2179,33.8942,87.9903,272.1261,0.00015866,2.238e-05,0.0,0 STARLINK-3633,1 51793U 22017AB  23272.59432000  .00002238  00000-0  15866-3 0  9990,2 51793  53.2179  33.8942 0001497  87.9903 272.1261 15.08846198 89299,6917.861,95.437,540.762,538.691,0.0
51793.0,STARLINK-3633,PAYLOAD,2023-09-30 01:23:31,15.08851151,0.0001482,53.2176,31.8138,78.6159,281.4999,0.00027863,4.151e-05,0.0,0 STARLINK-3633,1 51793U 22017AB  23273.05799876  .00004151  00000-0  27863-3 0  9995,2 51793  53.2176  31.8138 0001482  78.6159 281.4999 15.08851151 89369,6917.846,95.437,540.737,538.686,0.0
51793.0,STARLINK-3633,PAYLOAD,2023-09-30 12:31:12,15.08852134,0.0001639,53.2177,29.7318,82.6231,277.4947,0.00020728,3.013e-05,0.0,0 STARLINK-3633,1 51793U 22017AB  23273.52167661  .00003013  00000-0  20728-3 0  9997,2 51793  53.2177  29.7318 0001639  82.6231 277.4947 15.08852134 89434,6917.843,95.437,540.842,538.574,0.0
51793.0,STARLINK-3633,PAYLOAD,2023-10-01 12:21:59,15.08849122,0.000154,53.2176,25.2714,81.3727,278.744,0.00015834,2.233e-05,0.0,0 STARLINK-3633,1 51793U 22017AB  23274.51527504  .00002233  00000-0  15834-3 0  9998,2 51793  53.2176  25.2714 0001540  81.3727 278.7440 15.08849122 89582,6917.853,95.437,540.783,538.652,0.0
51793.0,STARLINK-3633,PAYLOAD,2023-10-01 13:57:22,15.08852629,0.0001555,53.2203,24.9726,98.316,261.8008,0.00020391,2.96e-05,0.0,0 STARLINK-3633,1 51793U 22017AB  23274.58151276  .00002960  00000-0  20391-3 0  9995,2 51793  53.2203  24.9726 0001555  98.3160 261.8008 15.08852629 89597,6917.842,95.437,540.783,538.631,0.0
51793.0,STARLINK-3633,PAYLOAD,2023-10-01 17:08:08,15.08857972,0.0001537,53.2179,24.3787,89.1821,270.9347,0.00032617,4.909e-05,0.0,0 STARLINK-3633,1 51793U 22017AB  23274.71399108  .00004909  00000-0  32617-3 0  9997,2 51793  53.2179  24.3787 0001537  89.1821 270.9347 15.08857972 89618,6917.825,95.436,540.754,538.627,0.0
51793.0,STARLINK-3633,PAYLOAD,2023-10-02 01:05:05,15.08832655,0.0002208,53.2169,22.8927,78.3697,281.7543,-0.0001029,-1.925e-05,0.0,0 STARLINK-3633,1 51793U 22017AB  23275.04520451 -.00001925  00000-0 -10290-3 0  9991,2 51793  53.2169  22.8927 0002208  78.3697 281.7543 15.08832655 89667,6917.903,95.438,541.295,538.24,0.0
51793.0,STARLINK-3633,PAYLOAD,2023-10-02 13:48:10,15.08831209,0.0001688,53.2193,20.514,80.8219,279.2965,-5.8601e-06,-3.81e-06,0.0,0 STARLINK-3633,1 51793U 22017AB  23275.57512317 -.00000381  00000-0 -58601-5 0  9996,2 51793  53.2193  20.5140 0001688  80.8219 279.2965 15.08831209 89748,6917.907,95.438,540.94,538.605,0.0
51793.0,STARLINK-3633,PAYLOAD,2023-10-03 13:38:57,15.08848814,0.00014,53.2178,16.0537,73.2389,286.8757,0.0007142,0.00011099,0.0,0 STARLINK-3633,1 51793U 22017AB  23276.56872473  .00011099  00000-0  71420-3 0  9996,2 51793  53.2178  16.0537 0001400  73.2389 286.8757 15.08848814 89896,6917.853,95.437,540.687,538.75,0.0
51793.0,STARLINK-3633,PAYLOAD,2023-10-04 10:18:58,15.08851664,0.0001595,53.2177,12.1878,78.2521,281.865,0.00047125,7.222e-05,0.0,0 STARLINK-3633,1 51793U 22017AB  23277.42984221  .00007222  00000-0  47125-3 0  9995,2 51793  53.2177  12.1878 0001595  78.2521 281.8650 15.08851664 90029,6917.845,95.437,540.813,538.606,0.0
51793.0,STARLINK-3633,PAYLOAD,2023-10-04 13:29:44,15.08863336,0.0001504,53.2183,11.5936,83.7505,276.3658,0.00087291,0.0001364,0.0,0 STARLINK-3633,1 51793U 22017AB  23277.56231927  .00013640  00000-0  87291-3 0  9997,2 51793  53.2183  11.5936 0001504  83.7505 276.3658 15.08863336 90045,6917.809,95.436,540.714,538.634,0.0
51793.0,STARLINK-3633,PAYLOAD,2023-10-04 15:05:07,15.08867182,0.0001524,53.2184,11.2948,81.1026,279.0138,0.00089209,0.00013949,0.0,0 STARLINK-3633,1 51793U 22017AB  23277.62855763  .00013949  00000-0  89209-3 0  9997,2 51793  53.2184  11.2948 0001524  81.1026 279.0138 15.08867182 90055,6917.797,95.436,540.717,538.608,0.0
51793.0,STARLINK-3633,PAYLOAD,2023-10-05 10:09:45,15.0884261,0.0001863,53.2169,7.7236,111.381,248.7381,0.00058779,9.08e-05,0.0,0 STARLINK-3633,1 51793U 22017AB  23278.42344136  .00009080  00000-0  58779-3 0  9992,2 51793  53.2169   7.7236 0001863 111.3810 248.7381 15.08842610 90176,6917.872,95.437,541.026,538.449,0.0
51793.0,STARLINK-3633,PAYLOAD,2023-10-05 13:20:31,15.08849417,0.0001451,53.2172,7.1336,95.0471,265.0687,0.00095573,0.00014959,0.0,0 STARLINK-3633,1 51793U 22017AB  23278.55592193  .00014959  00000-0  95573-3 0  9998,2 51793  53.2172   7.1336 0001451  95.0471 265.0687 15.08849417 90194,6917.852,95.437,540.72,538.713,0.0
51793.0,STARLINK-3633,PAYLOAD,2023-10-05 14:55:54,15.08856492,0.0001528,53.2173,6.8357,96.3451,263.7715,0.0012479,0.00019637,0.0,0 STARLINK-3633,1 51793U 22017AB  23278.62216117  .00019637  00000-0  12479-2 0  9996,2 51793  53.2173   6.8357 0001528  96.3451 263.7715 15.08856492 90201,6917.83,95.437,540.752,538.638,0.0
51793.0,STARLINK-3633,PAYLOAD,2023-10-06 13:11:19,15.08844005,0.0001347,53.2163,2.6756,105.7006,254.4135,0.00090354,0.00014123,0.0,0 STARLINK-3633,1 51793U 22017AB  23279.54952745  .00014123  00000-0  90354-3 0  9996,2 51793  53.2163   2.6756 0001347 105.7006 254.4135 15.08844005 90342,6917.868,95.437,540.665,538.801,0.0
51793.0,STARLINK-3633,PAYLOAD,2023-10-06 22:43:38,15.08836816,0.0001836,53.2179,0.8867,87.8684,272.2518,0.00040294,6.13e-05,0.0,0 STARLINK-3633,1 51793U 22017AB  23279.94697110  .00006130  00000-0  40294-3 0  9999,2 51793  53.2179   0.8867 0001836  87.8684 272.2518 15.08836816 90408,6917.89,95.438,541.025,538.485,0.0
51793.0,STARLINK-3633,PAYLOAD,2023-10-07 13:02:06,15.08852626,0.0001519,53.2168,358.2129,87.7177,272.3989,0.00063124,9.776e-05,0.0,0 STARLINK-3633,1 51793U 22017AB  23280.54312751  .00009776  00000-0  63124-3 0  9998,2 51793  53.2168 358.2129 0001519  87.7177 272.3989 15.08852626 90490,6917.842,95.437,540.758,538.656,0.0
51793.0,STARLINK-3633,PAYLOAD,2023-10-08 09:42:07,15.08841584,0.0001884,53.2175,354.3474,90.9814,269.1394,0.00017621,2.517e-05,0.0,0 STARLINK-3633,1 51793U 22017AB  23281.40425188  .00002517  00000-0  17621-3 0  9990,2 51793  53.2175 354.3474 0001884  90.9814 269.1394 15.08841584 90627,6917.876,95.437,541.044,538.437,0.0
51793.0,STARLINK-3633,PAYLOAD,2023-10-08 12:52:53,15.08846055,0.0001699,53.217,353.7513,98.8712,261.2473,0.00026507,3.934e-05,0.0,0 STARLINK-3633,1 51793U 22017AB  23281.53672949  .00003934  00000-0  26507-3 0  9990,2 51793  53.2170 353.7513 0001699  98.8712 261.2473 15.08846055 90648,6917.862,95.437,540.902,538.552,0.0
